[{"OBJECT_NAME":"STARLINK-35662","OBJECT_ID":"2025-257E","EPOCH":"2026-03-02T17:55:56.600832","MEAN_MOTION":15.30223407,"ECCENTRICITY":5.17e-5,"INCLINATION":53.1556,"RA_OF_ASC_NODE":249.0545,"ARG_OF_PERICENTER":73.9416,"MEAN_ANOMALY":286.1642,"EPHEMERIS_TYPE":0,"CLASSIFICATION_TYPE":"U","NORAD_CAT_ID":66384,"ELEMENT_SET_NO":999,"REV_AT_EPOCH":1867,"BSTAR":0.00033659386,"MEAN_MOTION_DOT":9.63e-5,"MEAN_MOTION_DDOT":0},{"OBJECT_NAME":"STARLINK-35659","OBJECT_ID":"2025-257F","EPOCH":"2026-03-02T18:03:32.275296","MEAN_MOTION":15.30204309,"ECCENTRICITY":9.253e-5,"INCLINATION":53.1562,"RA_OF_ASC_NODE":249.0871,"ARG_OF_PERICENTER":65.6974,"MEAN_ANOMALY":294.4123,"EPHEMERIS_TYPE":0,"CLASSIFICATION_TYPE":"U","NORAD_CAT_ID":66385,"ELEMENT_SET_NO":999,"REV_AT_EPOCH":1867,"BSTAR":0.0010015922,"MEAN_MOTION_DOT":0.00029427,"MEAN_MOTION_DDOT":0},{"OBJECT_NAME":"STARLINK-35651","OBJECT_ID":"2025-257G","EPOCH":"2026-03-02T19:26:57.250176","MEAN_MOTION":15.30204684,"ECCENTRICITY":9.22e-5,"INCLINATION":53.1562,"RA_OF_ASC_NODE":248.7373,"ARG_OF_PERICENTER":73.0269,"MEAN_ANOMALY":287.0833,"EPHEMERIS_TYPE":0,"CLASSIFICATION_TYPE":"U","NORAD_CAT_ID":66386,"ELEMENT_SET_NO":999,"REV_AT_EPOCH":1868,"BSTAR":0.0008975393,"MEAN_MOTION_DOT":0.00026321,"MEAN_MOTION_DDOT":0},{"OBJECT_NAME":"STARLINK-35661","OBJECT_ID":"2025-257H","EPOCH":"2026-03-02T19:23:55.035168","MEAN_MOTION":15.30196137,"ECCENTRICITY":0.00011242,"INCLINATION":53.1563,"RA_OF_ASC_NODE":248.7274,"ARG_OF_PERICENTER":89.728,"MEAN_ANOMALY":270.3849,"EPHEMERIS_TYPE":0,"CLASSIFICATION_TYPE":"U","NORAD_CAT_ID":66387,"ELEMENT_SET_NO":999,"REV_AT_EPOCH":1868,"BSTAR":0.00054543223,"MEAN_MOTION_DOT":0.00015828,"MEAN_MOTION_DDOT":0},{"OBJECT_NAME":"STARLINK-35647","OBJECT_ID":"2025-257J","EPOCH":"2026-03-02T17:48:20.468448","MEAN_MOTION":15.30205245,"ECCENTRICITY":0.00010463,"INCLINATION":53.1562,"RA_OF_ASC_NODE":249.0185,"ARG_OF_PERICENTER":83.1198,"MEAN_ANOMALY":276.9922,"EPHEMERIS_TYPE":0,"CLASSIFICATION_TYPE":"U","NORAD_CAT_ID":66388,"ELEMENT_SET_NO":999,"REV_AT_EPOCH":1866,"BSTAR":0.00078346493,"MEAN_MOTION_DOT":0.0002292,"MEAN_MOTION_DDOT":0},{"OBJECT_NAME":"STARLINK-35694","OBJECT_ID":"2025-257K","EPOCH":"2026-03-02T19:28:28.378848","MEAN_MOTION":15.30194071,"ECCENTRICITY":8.764e-5,"INCLINATION":53.1562,"RA_OF_ASC_NODE":248.7437,"ARG_OF_PERICENTER":76.822,"MEAN_ANOMALY":283.2878,"EPHEMERIS_TYPE":0,"CLASSIFICATION_TYPE":"U","NORAD_CAT_ID":66389,"ELEMENT_SET_NO":999,"REV_AT_EPOCH":1868,"BSTAR":0.0013784407,"MEAN_MOTION_DOT":0.00040682,"MEAN_MOTION_DDOT":0},{"OBJECT_NAME":"STARLINK-35665","OBJECT_ID":"2025-257L","EPOCH":"2026-03-02T21:19:15.868704","MEAN_MOTION":15.30187022,"ECCENTRICITY":0.0001029,"INCLINATION":53.1568,"RA_OF_ASC_NODE":248.4963,"ARG_OF_PERICENTER":141.475,"MEAN_ANOMALY":218.6324,"EPHEMERIS_TYPE":0,"CLASSIFICATION_TYPE":"U","NORAD_CAT_ID":66390,"ELEMENT_SET_NO":999,"REV_AT_EPOCH":1879,"BSTAR":0.00088571,"MEAN_MOTION_DOT":0.00025954,"MEAN_MOTION_DDOT":0},{"OBJECT_NAME":"STARLINK-35656","OBJECT_ID":"2025-257M","EPOCH":"2026-03-02T18:25:45.405696","MEAN_MOTION":15.30218633,"ECCENTRICITY":9.532e-5,"INCLINATION":53.1569,"RA_OF_ASC_NODE":252.0098,"ARG_OF_PERICENTER":78.735,"MEAN_ANOMALY":281.3758,"EPHEMERIS_TYPE":0,"CLASSIFICATION_TYPE":"U","NORAD_CAT_ID":66391,"ELEMENT_SET_NO":999,"REV_AT_EPOCH":1873,"BSTAR":0.00088042905,"MEAN_MOTION_DOT":0.00025822,"MEAN_MOTION_DDOT":0},{"OBJECT_NAME":"STARLINK-35671","OBJECT_ID":"2025-257N","EPOCH":"2026-03-02T22:25:56.404704","MEAN_MOTION":15.3021181,"ECCENTRICITY":9.38e-5,"INCLINATION":53.1566,"RA_OF_ASC_NODE":248.0912,"ARG_OF_PERICENTER":79.1159,"MEAN_ANOMALY":280.9947,"EPHEMERIS_TYPE":0,"CLASSIFICATION_TYPE":"U","NORAD_CAT_ID":66392,"ELEMENT_SET_NO":999,"REV_AT_EPOCH":1870,"BSTAR":0.00086546,"MEAN_MOTION_DOT":0.0002537,"MEAN_MOTION_DDOT":0},{"OBJECT_NAME":"STARLINK-35652","OBJECT_ID":"2025-257P","EPOCH":"2026-03-02T19:10:23.951712","MEAN_MOTION":15.30196654,"ECCENTRICITY":9.953e-5,"INCLINATION":53.1574,"RA_OF_ASC_NODE":249.3736,"ARG_OF_PERICENTER":76.9216,"MEAN_ANOMALY":283.1896,"EPHEMERIS_TYPE":0,"CLASSIFICATION_TYPE":"U","NORAD_CAT_ID":66393,"ELEMENT_SET_NO":999,"REV_AT_EPOCH":1867,"BSTAR":0.00099365557,"MEAN_MOTION_DOT":0.00029183,"MEAN_MOTION_DDOT":0},{"OBJECT_NAME":"STARLINK-35672","OBJECT_ID":"2025-257Q","EPOCH":"2026-03-02T21:45:04.458240","MEAN_MOTION":15.3020766,"ECCENTRICITY":0.0001194,"INCLINATION":53.1581,"RA_OF_ASC_NODE":248.6222,"ARG_OF_PERICENTER":68.5868,"MEAN_ANOMALY":291.526,"EPHEMERIS_TYPE":0,"CLASSIFICATION_TYPE":"U","NORAD_CAT_ID":66394,"ELEMENT_SET_NO":999,"REV_AT_EPOCH":1869,"BSTAR":0.0008125,"MEAN_MOTION_DOT":0.00023787,"MEAN_MOTION_DDOT":0},{"OBJECT_NAME":"STARLINK-35681","OBJECT_ID":"2025-257R","EPOCH":"2026-03-02T18:08:05.490240","MEAN_MOTION":15.30198285,"ECCENTRICITY":0.00010728,"INCLINATION":53.1571,"RA_OF_ASC_NODE":249.102,"ARG_OF_PERICENTER":76.2107,"MEAN_ANOMALY":283.9013,"EPHEMERIS_TYPE":0,"CLASSIFICATION_TYPE":"U","NORAD_CAT_ID":66395,"ELEMENT_SET_NO":999,"REV_AT_EPOCH":1859,"BSTAR":0.00074566488,"MEAN_MOTION_DOT":0.00021789,"MEAN_MOTION_DDOT":0},{"OBJECT_NAME":"STARLINK-35669","OBJECT_ID":"2025-257S","EPOCH":"2026-03-02T18:00:29.856384","MEAN_MOTION":15.30204081,"ECCENTRICITY":6.119e-5,"INCLINATION":53.1556,"RA_OF_ASC_NODE":249.0689,"ARG_OF_PERICENTER":86.0071,"MEAN_ANOMALY":274.1,"EPHEMERIS_TYPE":0,"CLASSIFICATION_TYPE":"U","NORAD_CAT_ID":66396,"ELEMENT_SET_NO":999,"REV_AT_EPOCH":1867,"BSTAR":0.0012977203,"MEAN_MOTION_DOT":0.00038279,"MEAN_MOTION_DDOT":0},{"OBJECT_NAME":"STARLINK-35510","OBJECT_ID":"2025-257T","EPOCH":"2026-03-02T19:19:21.725184","MEAN_MOTION":15.30179556,"ECCENTRICITY":0.00016513,"INCLINATION":53.1571,"RA_OF_ASC_NODE":248.6993,"ARG_OF_PERICENTER":51.6586,"MEAN_ANOMALY":308.4563,"EPHEMERIS_TYPE":0,"CLASSIFICATION_TYPE":"U","NORAD_CAT_ID":66397,"ELEMENT_SET_NO":999,"REV_AT_EPOCH":1868,"BSTAR":-8.3324449e-5,"MEAN_MOTION_DOT":-2.825e-5,"MEAN_MOTION_DDOT":0},{"OBJECT_NAME":"STARLINK-35642","OBJECT_ID":"2025-257U","EPOCH":"2026-03-02T22:07:52.020768","MEAN_MOTION":15.30210046,"ECCENTRICITY":9.45e-5,"INCLINATION":53.1577,"RA_OF_ASC_NODE":248.7171,"ARG_OF_PERICENTER":75.3873,"MEAN_ANOMALY":284.7233,"EPHEMERIS_TYPE":0,"CLASSIFICATION_TYPE":"U","NORAD_CAT_ID":66398,"ELEMENT_SET_NO":999,"REV_AT_EPOCH":1869,"BSTAR":0.0013233,"MEAN_MOTION_DOT":0.00039053,"MEAN_MOTION_DDOT":0},{"OBJECT_NAME":"STARLINK-35657","OBJECT_ID":"2025-257V","EPOCH":"2026-03-02T22:09:24.162912","MEAN_MOTION":15.30237065,"ECCENTRICITY":0.0001203,"INCLINATION":53.1579,"RA_OF_ASC_NODE":248.7245,"ARG_OF_PERICENTER":72.7494,"MEAN_ANOMALY":287.3639,"EPHEMERIS_TYPE":0,"CLASSIFICATION_TYPE":"U","NORAD_CAT_ID":66399,"ELEMENT_SET_NO":999,"REV_AT_EPOCH":1868,"BSTAR":0.00097984,"MEAN_MOTION_DOT":0.00028807,"MEAN_MOTION_DDOT":0},{"OBJECT_NAME":"STARLINK-35667","OBJECT_ID":"2025-257W","EPOCH":"2026-03-02T18:43:02.554752","MEAN_MOTION":15.3020786,"ECCENTRICITY":0.00010484,"INCLINATION":53.1594,"RA_OF_ASC_NODE":249.2464,"ARG_OF_PERICENTER":122.6776,"MEAN_ANOMALY":237.4326,"EPHEMERIS_TYPE":0,"CLASSIFICATION_TYPE":"U","NORAD_CAT_ID":66400,"ELEMENT_SET_NO":999,"REV_AT_EPOCH":1867,"BSTAR":0.00061603206,"MEAN_MOTION_DOT":0.00017934,"MEAN_MOTION_DDOT":0},{"OBJECT_NAME":"STARLINK-35668","OBJECT_ID":"2025-257X","EPOCH":"2026-03-02T20:09:30.295872","MEAN_MOTION":15.30221198,"ECCENTRICITY":9.53e-5,"INCLINATION":53.1587,"RA_OF_ASC_NODE":248.9132,"ARG_OF_PERICENTER":81.3209,"MEAN_ANOMALY":278.7899,"EPHEMERIS_TYPE":0,"CLASSIFICATION_TYPE":"U","NORAD_CAT_ID":66401,"ELEMENT_SET_NO":999,"REV_AT_EPOCH":1868,"BSTAR":0.0010761,"MEAN_MOTION_DOT":0.00031668,"MEAN_MOTION_DDOT":0},{"OBJECT_NAME":"STARLINK-35644","OBJECT_ID":"2025-257Y","EPOCH":"2026-03-02T18:46:04.955520","MEAN_MOTION":15.30199088,"ECCENTRICITY":0.00012673,"INCLINATION":53.1597,"RA_OF_ASC_NODE":249.2622,"ARG_OF_PERICENTER":126.0737,"MEAN_ANOMALY":234.0381,"EPHEMERIS_TYPE":0,"CLASSIFICATION_TYPE":"U","NORAD_CAT_ID":66402,"ELEMENT_SET_NO":999,"REV_AT_EPOCH":1866,"BSTAR":0.00046982171,"MEAN_MOTION_DOT":0.00013581,"MEAN_MOTION_DDOT":0},{"OBJECT_NAME":"STARLINK-35602","OBJECT_ID":"2025-257Z","EPOCH":"2026-03-02T21:34:26.177376","MEAN_MOTION":15.30212501,"ECCENTRICITY":0.0001123,"INCLINATION":53.1581,"RA_OF_ASC_NODE":248.5715,"ARG_OF_PERICENTER":78.9976,"MEAN_ANOMALY":281.1151,"EPHEMERIS_TYPE":0,"CLASSIFICATION_TYPE":"U","NORAD_CAT_ID":66403,"ELEMENT_SET_NO":999,"REV_AT_EPOCH":1869,"BSTAR":0.0011879,"MEAN_MOTION_DOT":0.00035003,"MEAN_MOTION_DDOT":0},{"OBJECT_NAME":"STARLINK-35691","OBJECT_ID":"2025-257AA","EPOCH":"2026-03-02T21:29:52.546848","MEAN_MOTION":15.30205526,"ECCENTRICITY":0.0001037,"INCLINATION":53.1576,"RA_OF_ASC_NODE":248.5521,"ARG_OF_PERICENTER":79.0661,"MEAN_ANOMALY":281.0456,"EPHEMERIS_TYPE":0,"CLASSIFICATION_TYPE":"U","NORAD_CAT_ID":66404,"ELEMENT_SET_NO":999,"REV_AT_EPOCH":1869,"BSTAR":0.00068729,"MEAN_MOTION_DOT":0.00020055,"MEAN_MOTION_DDOT":0},{"OBJECT_NAME":"STARLINK-35683","OBJECT_ID":"2025-257AB","EPOCH":"2026-03-02T21:25:19.394112","MEAN_MOTION":15.30228757,"ECCENTRICITY":0.0001594,"INCLINATION":53.1581,"RA_OF_ASC_NODE":248.5329,"ARG_OF_PERICENTER":65.2263,"MEAN_ANOMALY":294.8904,"EPHEMERIS_TYPE":0,"CLASSIFICATION_TYPE":"U","NORAD_CAT_ID":66405,"ELEMENT_SET_NO":999,"REV_AT_EPOCH":1862,"BSTAR":0.0013025,"MEAN_MOTION_DOT":0.00038451,"MEAN_MOTION_DDOT":0},{"OBJECT_NAME":"STARLINK-34840","OBJECT_ID":"2025-257AC","EPOCH":"2026-03-02T21:22:16.502592","MEAN_MOTION":15.30214263,"ECCENTRICITY":0.0001081,"INCLINATION":53.1574,"RA_OF_ASC_NODE":248.5099,"ARG_OF_PERICENTER":59.0085,"MEAN_ANOMALY":301.1022,"EPHEMERIS_TYPE":0,"CLASSIFICATION_TYPE":"U","NORAD_CAT_ID":66406,"ELEMENT_SET_NO":999,"REV_AT_EPOCH":1863,"BSTAR":0.00074535,"MEAN_MOTION_DOT":0.0002179,"MEAN_MOTION_DDOT":0}]
